IRIDIUM 126             
1 42809U 17039G   26014.58813615  .00000096  00000+0  27180-4 0  9999
2 42809  86.3940  57.8479 0002330  98.7695 261.3765 14.34217057447938
IRIDIUM 124             
1 42810U 17039H   26014.96990480  .00000272  00000+0  74887-4 0  9991
2 42810  86.4505 354.4118 0002515  85.9998 274.1490 14.43283258453012
IRIDIUM 128             
1 42811U 17039J   26014.71841168 -.00000001  00000+0 -75191-5 0  9995
2 42811  86.3951  89.3347 0002074  89.0676 271.0757 14.34217590447980
IRIDIUM 121             
1 42812U 17039K   26014.81646944 -.00000009  00000+0 -10413-4 0  9995
2 42812  86.3932  57.7788 0002019  90.9861 269.1566 14.34217529447847
IRIDIUM 133             
1 42955U 17061A   26014.61058429  .00000119  00000+0  35353-4 0  9991
2 42955  86.3954  89.4939 0002196  94.9825 265.1621 14.34216369432763
IRIDIUM 100             
1 42956U 17061B   26014.60424381  .00000138  00000+0  42174-4 0  9995
2 42956  86.3953  89.4189 0002181  94.8665 265.2780 14.34216711432763
IRIDIUM 122             
1 42957U 17061C   26014.71206885  .00000060  00000+0  14310-4 0  9990
2 42957  86.3953  89.3735 0002300  98.6007 261.5449 14.34217872432787
IRIDIUM 129             
1 42958U 17061D   26014.59790144 -.00000027  00000+0 -16577-4 0  9995
2 42958  86.3952  89.4865 0001841 107.0452 253.0945 14.34217490432783
